[{"OBJECT_NAME":"STARLINK-5813","OBJECT_ID":"2023-028BB","EPOCH":"2026-03-09T17:39:52.878816","MEAN_MOTION":14.98330415,"ECCENTRICITY":0.00030994,"INCLINATION":70.0005,"RA_OF_ASC_NODE":204.317,"ARG_OF_PERICENTER":270.2686,"MEAN_ANOMALY":89.8118,"EPHEMERIS_TYPE":0,"CLASSIFICATION_TYPE":"U","NORAD_CAT_ID":55790,"ELEMENT_SET_NO":999,"REV_AT_EPOCH":16703,"BSTAR":2.0648863e-5,"MEAN_MOTION_DOT":1.53e-6,"MEAN_MOTION_DDOT":0},{"OBJECT_NAME":"NTS (CANX-6)","OBJECT_ID":"2008-021B","EPOCH":"2026-03-09T21:01:43.854528","MEAN_MOTION":15.02479058,"ECCENTRICITY":0.00123192,"INCLINATION":97.9039,"RA_OF_ASC_NODE":46.2456,"ARG_OF_PERICENTER":105.3107,"MEAN_ANOMALY":254.9479,"EPHEMERIS_TYPE":0,"CLASSIFICATION_TYPE":"U","NORAD_CAT_ID":32784,"ELEMENT_SET_NO":999,"REV_AT_EPOCH":96921,"BSTAR":0.00045679857,"MEAN_MOTION_DOT":6.01e-5,"MEAN_MOTION_DDOT":0}]
